OBJECT_NAME,OBJECT_ID,EPOCH,MEAN_MOTION,ECCENTRICITY,INCLINATION,RA_OF_ASC_NODE,ARG_OF_PERICENTER,MEAN_ANOMALY,EPHEMERIS_TYPE,CLASSIFICATION_TYPE,NORAD_CAT_ID,ELEMENT_SET_NO,REV_AT_EPOCH,BSTAR,MEAN_MOTION_DOT,MEAN_MOTION_DDOT
NUSAT-50 (NANCY ROMAN),2024-149AB,2026-07-06T04:48:09.376992,15.30210559,.00047108,97.3779,268.3271,123.4909,236.6782,0,U,60493,999,10503,.31404221E-3,.9108E-4,0
FLOCK 4BE-22,2024-149AC,2026-07-06T03:47:21.756480,15.41780719,.00040519,97.3725,270.9054,180.5739,179.5504,0,U,60494,999,10522,.40905348E-3,.17244E-3,0
FLOCK 4BE-34,2024-149AD,2026-07-06T04:12:22.521024,15.41753631,.00039564,97.3776,271.7573,188.0848,172.0336,0,U,60495,999,10525,.40746756E-3,.17161E-3,0
TYCHE,2024-149AE,2026-07-06T03:39:54.925056,15.25921423,.00025858,97.3745,264.7152,182.7883,177.3342,0,U,60496,999,10479,.19577295E-3,.495E-4,0
FLOCK 4BE-32,2024-149AF,2026-07-06T04:42:03.042720,15.42857166,.000415,97.3711,271.3363,184.8833,175.2374,0,U,60497,999,10526,.4786945E-3,.20944E-3,0
NUSAT-48 (HENRIETTA LEAVITT),2024-149AG,2026-07-06T04:31:58.795680,15.30170218,.00039678,97.3910,268.5926,187.0344,173.0842,0,U,60498,999,10504,.32447524E-3,.94E-4,0
FLOCK 4BE-30,2024-149AH,2026-07-06T04:34:45.996960,15.62377374,.00062835,97.3753,273.4203,220.1670,139.9124,0,U,60499,999,10473,.21662938E-2,.196009E-2,0
NUSAT-49 (KLARA DAN VON NEUMANN),2024-149AJ,2026-07-06T03:58:45.783552,15.30279282,.00015877,97.3772,268.3251,190.7140,169.4067,0,U,60500,999,10503,.32011616E-3,.9303E-4,0
FLOCK 4BE-11,2024-149AK,2026-07-06T04:19:54.948576,15.43648949,.00042272,97.3690,271.5693,184.5947,175.5263,0,U,60501,999,10528,.43058685E-3,.19335E-3,0
YAM-7,2024-149AN,2026-07-06T04:41:48.114528,15.32095835,.00027625,97.3774,267.3708,199.2942,160.8195,0,U,60504,999,10496,.24763295E-3,.7597E-4,0
FLOCK 4BE-24,2024-149AP,2026-07-06T03:58:10.879680,15.43842035,.00043069,97.3706,271.8178,198.0211,162.0886,0,U,60505,999,10529,.50299659E-3,.22759E-3,0
LUR-1,2024-149AQ,2026-07-06T03:24:27.158400,15.30367382,.00031022,97.3728,265.8353,218.3926,141.7095,0,U,60506,999,10487,.24839703E-3,.722E-4,0
TANAGER-1,2024-149AR,2026-07-06T04:55:16.920480,15.44201249,.00012464,97.2308,281.3898,188.8374,171.2853,0,U,60507,999,10597,.11027677E-4,.421E-5,0
EAGLEEYE,2024-149AS,2026-07-06T06:11:16.874016,15.75020003,.00049986,97.3713,281.7014,202.6773,157.4271,0,U,60508,999,10593,.84974082E-3,.12766E-2,0
FLOCK 4BE-29,2024-149AT,2026-07-06T03:55:28.133184,15.44900386,.00027572,97.3804,273.3300,199.2737,160.8408,0,U,60509,999,10534,.87006791E-3,.40956E-3,0
TRANSPORTER-11 OBJECT AU,2024-149AU,2026-07-06T03:43:43.106592,15.40789722,.00033842,97.3720,271.0336,198.2008,161.9117,0,U,60510,999,10523,.38588536E-3,.15732E-3,0
FLOCK 4BE-2,2024-149AV,2026-07-06T04:28:56.490816,15.55035092,.0004919,97.3823,275.0526,198.0045,162.1036,0,U,60511,999,10545,.10058636E-2,.6792E-3,0
FLOCK 4BE-13,2024-149AW,2026-07-06T04:01:51.156480,15.42434808,.00043637,97.3714,271.7827,183.8275,176.2940,0,U,60512,999,10529,.35533803E-3,.15296E-3,0
FLOCK 4BE-27,2024-149AX,2026-07-06T04:03:43.237152,15.34803020,.00031021,97.3820,269.0332,215.0339,145.0700,0,U,60513,999,10505,.30556762E-3,.10234E-3,0
FLOCK 4BE-9,2024-149AY,2026-07-06T04:19:28.790976,15.41402243,.00028426,97.3785,271.6428,197.9503,162.1644,0,U,60514,999,10524,.40037474E-3,.16661E-3,0
FLOCK 4BE-6,2024-149BA,2026-07-06T03:49:21.509472,15.40136074,.00034569,97.3779,270.9436,202.3512,157.7584,0,U,60516,999,10519,.38294889E-3,.15277E-3,0
FLOCK 4BE-14,2024-149BB,2026-07-06T04:33:37.292544,15.41642559,.00044009,97.3686,271.1287,207.4092,152.6923,0,U,60517,999,10525,.45141821E-3,.18956E-3,0
FLOCK 4BE-1,2024-149BC,2026-07-06T04:27:49.556736,15.43283335,.00041566,97.3772,272.4710,206.1703,153.9335,0,U,60518,999,10530,.4497566E-3,.19953E-3,0
FLOCK 4BE-28,2024-149BD,2026-07-05T18:47:44.938464,15.45662812,.00036217,97.3743,272.8436,197.6576,162.4548,0,U,60519,999,10531,.67796699E-3,.32701E-3,0
IPERDRONE.0,2024-149BE,2026-07-06T06:13:24.235392,15.69808668,.00042223,97.3767,281.4527,187.0911,173.0292,0,U,60520,999,10590,.77662499E-3,.93238E-3,0
TRANSPORTER-11 OBJECT BF,2024-149BF,2026-07-06T06:11:35.805984,15.98449621,.00076556,97.3749,284.8386,238.9621,121.0905,0,U,60521,999,10611,.12912438E-2,.599933E-2,.15856603E-3
CONNECTA IOT-2,2024-149BG,2026-07-06T03:42:59.846112,15.24143222,.00049208,97.3829,265.0145,251.6820,108.3883,0,U,60522,999,10478,.21540333E-3,.517E-4,0
CONNECTA IOT-4,2024-149BJ,2026-07-06T03:36:06.944832,15.42910898,.00052356,97.3791,271.7528,205.6718,154.4270,0,U,60524,999,10525,.5050209E-3,.22147E-3,0
ORESAT0.5,2024-149BK,2026-07-05T23:02:50.060832,15.45842189,.00054265,97.3717,273.2570,195.0166,165.0923,0,U,60525,999,10537,.496383E-3,.24046E-3,0
DEIMOS,2024-149BL,2026-07-06T04:44:19.674816,15.44950615,.0005246,97.3774,273.6282,201.2871,158.8160,0,U,60526,999,10538,.45141472E-3,.21196E-3,0
CUAVA-2,2024-149BM,2026-07-06T04:00:27.642240,15.36583427,.00061013,97.3718,268.7232,212.1980,147.8893,0,U,60527,999,10508,.36326487E-3,.12906E-3,0
ERNST,2024-149BN,2026-07-06T05:09:32.373792,15.39732420,.0005358,97.3801,271.0835,212.0128,148.0793,0,U,60528,999,10520,.35158754E-3,.13835E-3,0
TORO,2024-149BQ,2026-07-06T03:54:33.118848,14.96500059,.00016034,97.6782,261.4766,95.3247,264.8157,0,U,60530,999,10279,.25873643E-3,.2882E-4,0
HYPSO-2,2024-149BR,2026-07-06T03:51:15.013152,14.98896191,.00018541,97.6818,263.1438,109.9176,250.2247,0,U,60531,999,10289,.32778191E-3,.3903E-4,0
LEMU NGE,2024-149BS,2026-07-06T04:38:58.134624,14.95034823,.00008452,97.6830,261.7698,44.6669,315.4620,0,U,60532,999,10279,.20623287E-3,.22E-4,0
LEMUR-2-STELLA,2024-149BT,2026-07-06T03:23:33.910944,15.12243072,.00012469,97.6729,269.6836,106.9534,253.1833,0,U,60533,999,10336,.64835405E-3,.1115E-3,0
SATELIOT_2,2024-149BU,2026-07-06T03:37:10.114464,14.96433670,.00018601,97.6815,261.7611,88.4260,271.7174,0,U,60534,999,10280,.24531762E-3,.2725E-4,0
NIGHTJAR,2024-149BV,2026-07-06T03:34:44.793120,14.99127627,.00018885,97.6820,263.5896,112.4885,247.6538,0,U,60535,999,14571,.31182878E-3,.3732E-4,0
LEMUR-2-MARHISYAM,2024-149BW,2026-07-06T04:40:43.214304,15.11655906,.00028719,97.6870,270.2058,83.2434,276.9123,0,U,60536,999,10335,.6311825E-3,.10677E-3,0
SATELIOT_4,2024-149BX,2026-07-06T03:47:13.414560,14.96739357,.0001771,97.6731,261.2824,31.7469,328.3859,0,U,60537,999,10281,.25765737E-3,.2888E-4,0
PICO-02A021,2024-149BY,2026-07-05T17:40:51.669696,15.03443637,.00033303,97.6751,265.4116,335.0584,25.0480,0,U,60538,999,10252,.52596792E-3,.7103E-4,0
ICEYE-X43,2024-149BZ,2026-07-06T04:16:15.184128,14.99762021,.00072454,97.6814,263.8878,25.2112,334.9464,0,U,60539,999,10296,.31697825E-3,.386E-4,0
HAWK-10A,2024-149CA,2026-07-06T03:48:15.087744,14.96574196,.00038012,97.6891,262.7439,34.9966,325.1505,0,U,60540,999,10282,.20231011E-3,.2245E-4,0
UMBRA-09,2024-149CB,2026-07-06T04:18:38.450880,15.18670979,.00015549,97.6964,274.7172,225.7744,134.3362,0,U,60541,999,10360,.84502176E-3,.17473E-3,0
QPS-SAR-8 (AMATERU-IV),2024-149CC,2026-07-06T03:39:08.288928,15.04342671,.00044252,97.6665,266.1446,66.4247,293.7443,0,U,60542,999,10312,.40714062E-3,.5618E-4,0
ARCTIC WEATHER SATELLITE,2024-149CD,2026-07-06T03:52:14.438208,14.89816647,.0003386,97.6793,257.0839,67.9668,292.1909,0,U,60543,999,10212,.1109607E-3,.1011E-4,0
CAPELLA-15 (ACADIA-5),2024-149CE,2026-07-06T03:54:35.080992,14.92384860,.00038553,97.6765,259.5920,16.7921,343.3426,0,U,60544,999,10268,.43711608E-3,.442E-4,0
HAWK-10B,2024-149CF,2026-07-06T03:48:03.041856,14.96574114,.00061618,97.6812,262.0798,44.6081,315.5635,0,U,60545,999,10282,.20385449E-3,.2263E-4,0
ICEYE-X39,2024-149CG,2026-07-06T03:44:50.862336,15.00026820,.00069183,97.6762,263.9225,70.3542,289.8428,0,U,60546,999,10296,.37157811E-3,.4568E-4,0
UMBRA-10,2024-149CH,2026-07-06T04:18:00.244800,15.18664531,.00009656,97.6973,274.7465,175.9319,184.1923,0,U,60547,999,10361,.85807913E-3,.17742E-3,0
ICEYE-X33,2024-149CJ,2026-07-06T04:04:18.706944,15.00913216,.00019319,97.7328,266.2123,77.3780,282.7660,0,U,60548,999,10305,.42091319E-3,.5302E-4,0
ICEYE-X40,2024-149CK,2026-07-06T03:21:12.066336,14.98025110,.00046887,97.6789,263.3311,25.8667,334.2789,0,U,60549,999,10291,.17789925E-3,.2044E-4,0
SATELIOT_1,2024-149CL,2026-07-06T04:42:15.467040,14.98141939,.0006687,97.6732,262.7792,18.8118,341.3350,0,U,60550,999,10291,.17626351E-3,.2031E-4,0
BRO-14,2024-149CM,2026-07-06T04:31:30.467712,14.96224256,.00075938,97.6868,262.6250,43.5431,316.6389,0,U,60551,999,10283,.79118457E-4,.835E-5,0
SATELIOT_3,2024-149CN,2026-07-06T04:07:37.872768,14.98147004,.00059471,97.6827,263.5632,39.9423,320.2236,0,U,60552,999,10292,.25251477E-3,.2935E-4,0
BRO-15,2024-149CP,2026-07-06T04:06:30.401280,14.96221173,.00088701,97.6806,262.1932,33.8759,326.3027,0,U,60553,999,10284,.26762945E-3,.2964E-4,0
UM5-RIBAT,2024-149CQ,2026-07-06T04:52:28.410240,15.01190494,.00017881,97.6612,264.7468,28.5420,331.5902,0,U,60554,999,10304,.28119499E-3,.3548E-4,0
UM5-EOSAT,2024-149CR,2026-07-06T03:55:22.608768,15.01686292,.0009226,97.6758,265.6836,60.1279,300.0861,0,U,60555,999,10306,.34013669E-3,.4365E-4,0
LASARSAT,2024-247Q,2026-07-05T23:04:40.365120,15.47577253,.00064314,44.9730,156.6246,98.3595,261.8025,0,U,62391,999,8622,.72466866E-3,.38027E-3,0
CROCUBE,2024-247T,2026-07-05T08:31:43.923072,15.49608608,.0006223,44.9708,157.0633,99.0627,261.0968,0,U,62394,999,8616,.11046E-2,.62671E-3,0
TEVEL2-4,2025-052D,2026-07-05T05:46:13.761984,15.35303959,.0004352,97.3872,82.6666,70.8650,289.3064,0,U,63213,999,7288,.91379E-3,.31346E-3,0
TEVEL2-5,2025-052E,2026-07-05T09:26:28.304160,15.35125326,.0004363,97.3873,82.7629,72.3429,287.8291,0,U,63214,999,7290,.82946E-3,.28273E-3,0
TEVEL2-6,2025-052F,2026-07-06T06:05:04.656768,15.35119295,.0004121,97.3877,83.6095,74.3396,285.8302,0,U,63215,999,7303,.59119234E-3,.20103E-3,0
TEVEL2-1,2025-052H,2026-07-06T03:48:50.154912,15.34555105,.00047628,97.3845,83.1159,78.4385,281.7392,0,U,63217,999,7300,.55360393E-3,.18483E-3,0
